{
  "type": "FeatureCollection",
  "features": [
    {
      "type": "Feature",
      "properties": {
        "norad_id": 46435,
        "name": "IRIDIUM 33 DEB",
        "group": "iridium-33-debris",
        "lat": 26.672966787682856,
        "lon": 12.221126689481519,
        "alt_km": 866.0457359468428,
        "timestamp": "2025-12-12T09:49:09.117838+00:00",
        "meta_object_name": "IRIDIUM 33 DEB",
        "meta_object_id": "1997-051ABN",
        "meta_epoch": "2025-12-08T08:41:01.195296",
        "meta_mean_motion": 14.31888327,
        "meta_eccentricity": 0.02102864,
        "meta_inclination": 86.2835,
        "meta_ra_of_asc_node": 195.8323,
        "meta_arg_of_pericenter": 290.5462,
        "meta_mean_anomaly": 252.8586,
        "meta_ephemeris_type": 0,
        "meta_classification_type": "U",
        "meta_norad_cat_id": 46435,
        "meta_element_set_no": 999,
        "meta_rev_at_epoch": 7853,
        "meta_bstar": 0.0090831914,
        "meta_mean_motion_dot": 0.00031152,
        "meta_mean_motion_ddot": 0,
        "tle_line1": "1 46435U 97051ABN 25342.36181939  .00031152  00000+0  90832-2 0  9995",
        "tle_line2": "2 46435  86.2835 195.8323 0210286 290.5462 252.8586 14.31888327 78538"
      },
      "geometry": {
        "type": "Point",
        "coordinates": [
          12.221126689481519,
          26.672966787682856
        ]
      }
    },
    {
      "type": "Feature",
      "properties": {
        "norad_id": 46734,
        "name": "IRIDIUM 33 DEB",
        "group": "iridium-33-debris",
        "lat": -23.360277534136053,
        "lon": 1.3946152862026726,
        "alt_km": 729.7315645523895,
        "timestamp": "2025-12-12T09:49:09.117848+00:00",
        "meta_object_name": "IRIDIUM 33 DEB",
        "meta_object_id": "1997-051ABR",
        "meta_epoch": "2025-12-03T20:12:35.443296",
        "meta_mean_motion": 14.41795233,
        "meta_eccentricity": 0.00394426,
        "meta_inclination": 86.2642,
        "meta_ra_of_asc_node": 6.7702,
        "meta_arg_of_pericenter": 5.4679,
        "meta_mean_anomaly": 171.2392,
        "meta_ephemeris_type": 0,
        "meta_classification_type": "U",
        "meta_norad_cat_id": 46734,
        "meta_element_set_no": 999,
        "meta_rev_at_epoch": 62882,
        "meta_bstar": 0.0014594249,
        "meta_mean_motion_dot": 4.83e-05,
        "meta_mean_motion_ddot": 0,
        "tle_line1": "1 46734U 97051ABR 25337.84207689  .00004830  00000+0  14594-2 0  9999",
        "tle_line2": "2 46734  86.2642   6.7702 0039442   5.4679 171.2392 14.41795233628829"
      },
      "geometry": {
        "type": "Point",
        "coordinates": [
          1.3946152862026726,
          -23.360277534136053
        ]
      }
    },
    {
      "type": "Feature",
      "properties": {
        "norad_id": 46965,
        "name": "IRIDIUM 33 DEB",
        "group": "iridium-33-debris",
        "lat": 85.48693484428702,
        "lon": 106.55403496610602,
        "alt_km": 690.8548768093406,
        "timestamp": "2025-12-12T09:49:09.117859+00:00",
        "meta_object_name": "IRIDIUM 33 DEB",
        "meta_object_id": "1997-051ABX",
        "meta_epoch": "2025-12-09T11:22:29.536608",
        "meta_mean_motion": 14.60256222,
        "meta_eccentricity": 0.0018504,
        "meta_inclination": 86.3353,
        "meta_ra_of_asc_node": 342.1454,
        "meta_arg_of_pericenter": 344.7825,
        "meta_mean_anomaly": 167.4281,
        "meta_ephemeris_type": 0,
        "meta_classification_type": "U",
        "meta_norad_cat_id": 46965,
        "meta_element_set_no": 999,
        "meta_rev_at_epoch": 62220,
        "meta_bstar": 0.0013057124,
        "meta_mean_motion_dot": 6.336e-05,
        "meta_mean_motion_ddot": 0,
        "tle_line1": "1 46965U 97051ABX 25343.47395297  .00006336  00000+0  13057-2 0  9990",
        "tle_line2": "2 46965  86.3353 342.1454 0018504 344.7825 167.4281 14.60256222622205"
      },
      "geometry": {
        "type": "Point",
        "coordinates": [
          106.55403496610602,
          85.48693484428702
        ]
      }
    },
    {
      "type": "Feature",
      "properties": {
        "norad_id": 46971,
        "name": "IRIDIUM 33 DEB",
        "group": "iridium-33-debris",
        "lat": 52.09666000697816,
        "lon": 148.55211432451887,
        "alt_km": 571.2573550730995,
        "timestamp": "2025-12-12T09:49:09.117870+00:00",
        "meta_object_name": "IRIDIUM 33 DEB",
        "meta_object_id": "1997-051ACD",
        "meta_epoch": "2025-12-09T17:53:50.411040",
        "meta_mean_motion": 14.9771662,
        "meta_eccentricity": 0.00041979,
        "meta_inclination": 86.3387,
        "meta_ra_of_asc_node": 334.5212,
        "meta_arg_of_pericenter": 335.9126,
        "meta_mean_anomaly": 199.6728,
        "meta_ephemeris_type": 0,
        "meta_classification_type": "U",
        "meta_norad_cat_id": 46971,
        "meta_element_set_no": 999,
        "meta_rev_at_epoch": 64185,
        "meta_bstar": 0.0038941985,
        "meta_mean_motion_dot": 0.00045901,
        "meta_mean_motion_ddot": 0,
        "tle_line1": "1 46971U 97051ACD 25343.74572235  .00045901  00000+0  38942-2 0  9997",
        "tle_line2": "2 46971  86.3387 334.5212 0004197 335.9126 199.6728 14.97716620641853"
      },
      "geometry": {
        "type": "Point",
        "coordinates": [
          148.55211432451887,
          52.09666000697816
        ]
      }
    },
    {
      "type": "Feature",
      "properties": {
        "norad_id": 46974,
        "name": "IRIDIUM 33 DEB",
        "group": "iridium-33-debris",
        "lat": -6.901991272292739,
        "lon": -74.13157907519192,
        "alt_km": 679.8835263553365,
        "timestamp": "2025-12-12T09:49:09.117881+00:00",
        "meta_object_name": "IRIDIUM 33 DEB",
        "meta_object_id": "1997-051ACG",
        "meta_epoch": "2025-12-11T14:39:57.672288",
        "meta_mean_motion": 14.44318157,
        "meta_eccentricity": 0.00957564,
        "meta_inclination": 86.2985,
        "meta_ra_of_asc_node": 105.7678,
        "meta_arg_of_pericenter": 190.7341,
        "meta_mean_anomaly": 169.1819,
        "meta_ephemeris_type": 0,
        "meta_classification_type": "U",
        "meta_norad_cat_id": 46974,
        "meta_element_set_no": 999,
        "meta_rev_at_epoch": 57492,
        "meta_bstar": 0.0067113104,
        "meta_mean_motion_dot": 0.00024497,
        "meta_mean_motion_ddot": 0,
        "tle_line1": "1 46974U 97051ACG 25345.61108417  .00024497  00000+0  67113-2 0  9994",
        "tle_line2": "2 46974  86.2985 105.7678 0095756 190.7341 169.1819 14.44318157574921"
      },
      "geometry": {
        "type": "Point",
        "coordinates": [
          -74.13157907519192,
          -6.901991272292739
        ]
      }
    },
    {
      "type": "Feature",
      "properties": {
        "norad_id": 46979,
        "name": "IRIDIUM 33 DEB",
        "group": "iridium-33-debris",
        "lat": 38.93247447113214,
        "lon": -134.26138615106453,
        "alt_km": 594.8096365602814,
        "timestamp": "2025-12-12T09:49:09.117892+00:00",
        "meta_object_name": "IRIDIUM 33 DEB",
        "meta_object_id": "1997-051ACM",
        "meta_epoch": "2025-12-08T11:38:51.411264",
        "meta_mean_motion": 14.88966671,
        "meta_eccentricity": 0.00280118,
        "meta_inclination": 86.3345,
        "meta_ra_of_asc_node": 50.5282,
        "meta_arg_of_pericenter": 237.8713,
        "meta_mean_anomaly": 121.9794,
        "meta_ephemeris_type": 0,
        "meta_classification_type": "U",
        "meta_norad_cat_id": 46979,
        "meta_element_set_no": 999,
        "meta_rev_at_epoch": 35365,
        "meta_bstar": 0.0048738532,
        "meta_mean_motion_dot": 0.00046401,
        "meta_mean_motion_ddot": 0,
        "tle_line1": "1 46979U 97051ACM 25342.48531726  .00046401  00000+0  48739-2 0  9996",
        "tle_line2": "2 46979  86.3345  50.5282 0028011 237.8713 121.9794 14.88966671353652"
      },
      "geometry": {
        "type": "Point",
        "coordinates": [
          -134.26138615106453,
          38.93247447113214
        ]
      }
    }
  ]
}